OBJECT_NAME,OBJECT_ID,EPOCH,MEAN_MOTION,ECCENTRICITY,INCLINATION,RA_OF_ASC_NODE,ARG_OF_PERICENTER,MEAN_ANOMALY,EPHEMERIS_TYPE,CLASSIFICATION_TYPE,NORAD_CAT_ID,ELEMENT_SET_NO,REV_AT_EPOCH,BSTAR,MEAN_MOTION_DOT,MEAN_MOTION_DDOT
KUIPER-00622,2026-151S,2026-07-16T11:45:31.796640,15.37000023,.0006728,51.8730,174.1633,152.5718,207.5625,0,U,69779,999,221,.23166E-3,.8138E-4,0
KUIPER-00623,2026-151T,2026-07-16T22:34:30.108000,15.37347942,.0005335,51.8774,171.9362,131.9196,228.2246,0,U,69780,999,228,-.3295E-3,-.12628E-3,0
KUIPER-00626,2026-151U,2026-07-16T22:56:59.927424,15.35305839,.0009321,51.8711,172.0352,167.4383,192.6836,0,U,69781,999,228,.51028E-4,.1392E-4,0
KUIPER-00627,2026-151V,2026-07-16T22:59:35.823264,15.35281931,.001208,51.8689,172.0447,172.8680,187.2480,0,U,69782,999,228,-.69403E-3,-.24512E-3,0
KUIPER-00629,2026-151W,2026-07-17T04:00:01.998720,15.33056532,.0006877,51.8761,170.9469,159.2801,329.2240,0,U,69783,999,264,-.55887E-2,-.177474E-2,0
KUIPER-00631,2026-151X,2026-07-17T04:00:01.998720,15.33435164,.0008192,51.8724,170.9496,164.4188,318.0740,0,U,69784,999,130,-.19294E-2,-.6321E-3,0
KUIPER-00634,2026-151Y,2026-07-17T00:04:27.926400,15.37764503,.0003575,51.8773,171.6052,141.4099,218.7144,0,U,69785,999,229,.26836E-3,.9733E-4,0
KUIPER-00639,2026-151Z,2026-07-16T22:53:12.845760,15.35799939,.0009678,51.8681,172.0156,167.4374,192.6855,0,U,69786,999,228,.32682E-3,.11203E-3,0
KUIPER-00641,2026-151AA,2026-07-16T23:01:39.046944,15.34625447,.0008553,51.8636,172.0481,168.9885,191.1289,0,U,69787,999,228,-.3079E-3,-.10869E-3,0
KUIPER-00644,2026-151AB,2026-07-17T04:00:01.998720,15.36531914,.0008226,51.8737,170.9449,164.2104,317.9444,0,U,69788,999,325,-.52805E-3,-.19485E-3,0
KUIPER-00646,2026-151AC,2026-07-16T22:52:23.206368,15.35923256,.0009818,51.8694,172.0107,170.4775,189.6399,0,U,69789,999,228,.33316E-3,.11475E-3,0
KUIPER-00647,2026-151AD,2026-07-16T22:58:17.215680,15.35329094,.0010132,51.8665,172.0363,171.4305,188.6856,0,U,69790,999,228,.30743E-3,.10354E-3,0
KUIPER-00662,2026-151AE,2026-07-17T03:28:16.927968,15.36546517,.0008533,51.8738,171.0504,165.8388,194.2839,0,U,69791,999,231,-.25636E-3,-.9678E-4,0
LINK,2026-152A,2026-07-16T14:02:21.826176,15.67506125,.0024752,20.5917,316.6992,14.3025,345.8119,0,U,69792,999,207,.11602E-2,.137098E-2,0
2026-152B,2026-152B,2026-07-16T14:18:12.487968,15.64886251,.0022835,20.5984,316.8243,12.8189,347.2835,0,U,69793,999,207,.34073E-3,.36353E-3,0
ISS OBJECT YJ,1998-067YJ,2026-07-16T06:36:16.642368,15.50069444,.00077822,51.6316,156.0558,315.4379,44.5983,0,U,69794,999,216,.32058201E-3,.17942E-3,0
ISS OBJECT YK,1998-067YK,2026-07-16T06:30:10.006560,15.50781978,.00067037,51.6315,156.0282,324.0452,36.0086,0,U,69795,999,216,.55506535E-3,.32264E-3,0
ISS OBJECT YL,1998-067YL,2026-07-16T14:15:49.853664,15.50550046,.00087699,51.6314,154.4373,317.4896,42.5414,0,U,69796,999,220,.46629642E-3,.26803E-3,0
ISS OBJECT YM,1998-067YM,2026-07-16T06:31:22.800288,15.50571715,.00095827,51.6313,156.0339,308.1908,51.8217,0,U,69797,999,214,.42677001E-3,.2451E-3,0
ISS OBJECT YN,1998-067YN,2026-07-16T06:32:34.399104,15.50346409,.00092197,51.6315,156.0389,319.3500,40.6800,0,U,69798,999,216,.30215505E-3,.17059E-3,0
PROVES-ELECTRA,1998-067YP,2026-07-16T06:31:16.679712,15.50565584,.00097344,51.6313,156.0335,308.0926,51.9185,0,U,69799,999,215,.41405532E-3,.2376E-3,0
QIANFAN-201,2026-153A,2026-07-17T03:18:50.715072,14.26541753,.0008289,88.9924,358.8233,176.0885,184.0375,0,U,69800,999,182,.76474E-4,.199E-5,0
QIANFAN-202,2026-153B,2026-07-17T03:45:58.296672,14.18843359,.000687,88.9924,358.8263,168.3527,191.7822,0,U,69801,999,182,.1381E-4,.43E-6,0
QIANFAN-203,2026-153C,2026-07-17T03:38:36.466080,14.22390827,.0007501,88.9924,358.8255,177.4942,182.6288,0,U,69802,999,182,.18621E-4,.56E-6,0
QIANFAN-204,2026-153D,2026-07-17T03:41:24.876960,14.20114220,.0007836,88.9925,358.8257,172.0367,188.0949,0,U,69803,999,182,.13299E-4,.43E-6,0
QIANFAN-205,2026-153E,2026-07-17T03:40:32.990304,14.22264632,.0007707,88.9923,358.8255,176.0025,184.1230,0,U,69804,999,182,.42556E-4,.109E-5,0
QIANFAN-206,2026-153F,2026-07-17T03:28:11.814816,14.24034565,.0008192,88.9924,358.8243,176.7322,183.3926,0,U,69805,999,182,.13489E-4,.46E-6,0
QIANFAN-207,2026-153G,2026-07-17T03:25:59.392128,14.24250733,.0007628,88.9924,358.8241,176.7474,183.3769,0,U,69806,999,182,.54879E-4,.141E-5,0
QIANFAN-208,2026-153H,2026-07-17T03:22:58.842048,14.25462369,.0008423,88.9923,358.8237,177.5121,182.6116,0,U,69807,999,182,.5682E-4,.149E-5,0
QIANFAN-209,2026-153J,2026-07-17T03:28:09.933024,14.23086331,.0007552,88.9924,358.8242,173.9211,186.2074,0,U,69808,999,182,.3517E-4,.94E-6,0
