KUIPER-00622            
1 69779U 26151S   26197.48995135  .00008138  00000+0  23166-3 0  9992
2 69779  51.8730 174.1633 0006728 152.5718 207.5625 15.37000023  2214
KUIPER-00623            
1 69780U 26151T   26197.94062625 -.00012628  00000+0 -32950-3 0  9996
2 69780  51.8774 171.9362 0005335 131.9196 228.2246 15.37347942  2282
KUIPER-00626            
1 69781U 26151U   26197.95624916  .00001392  00000+0  51028-4 0  9997
2 69781  51.8711 172.0352 0009321 167.4383 192.6836 15.35305839  2282
KUIPER-00627            
1 69782U 26151V   26197.95805351 -.00024512  00000+0 -69403-3 0  9998
2 69782  51.8689 172.0447 0012080 172.8680 187.2480 15.35281931  2289
KUIPER-00629            
1 69783U 26151W   26198.16668980 -.00177474  00000+0 -55887-2 0  9994
2 69783  51.8761 170.9469 0006877 159.2801 329.2240 15.33056532  2640
KUIPER-00631            
1 69784U 26151X   26198.16668980 -.00063210  00000+0 -19294-2 0  9999
2 69784  51.8724 170.9496 0008192 164.4188 318.0740 15.33435164  1303
KUIPER-00634            
1 69785U 26151Y   26198.00310100  .00009733  00000+0  26836-3 0  9990
2 69785  51.8773 171.6052 0003575 141.4099 218.7144 15.37764503  2299
KUIPER-00639            
1 69786U 26151Z   26197.95362090  .00011203  00000+0  32682-3 0  9990
2 69786  51.8681 172.0156 0009678 167.4374 192.6855 15.35799939  2289
KUIPER-00641            
1 69787U 26151AA  26197.95947971 -.00010869  00000+0 -30790-3 0  9995
2 69787  51.8636 172.0481 0008553 168.9885 191.1289 15.34625447  2281
KUIPER-00644            
1 69788U 26151AB  26198.16668980 -.00019485  00000+0 -52805-3 0  9994
2 69788  51.8737 170.9449 0008226 164.2104 317.9444 15.36531914  3251
KUIPER-00646            
1 69789U 26151AC  26197.95304637  .00011475  00000+0  33316-3 0  9992
2 69789  51.8694 172.0107 0009818 170.4775 189.6399 15.35923256  2287
KUIPER-00647            
1 69790U 26151AD  26197.95714370  .00010354  00000+0  30743-3 0  9999
2 69790  51.8665 172.0363 0010132 171.4305 188.6856 15.35329094  2289
KUIPER-00662            
1 69791U 26151AE  26198.14464037 -.00009678  00000+0 -25636-3 0  9998
2 69791  51.8738 171.0504 0008533 165.8388 194.2839 15.36546517  2317
LINK                    
1 69792U 26152A   26197.58497484  .00137098  00000+0  11602-2 0  9992
2 69792  20.5917 316.6992 0024752  14.3025 345.8119 15.67506125  2078
2026-152B               
1 69793U 26152B   26197.59597787  .00036353  00000+0  34073-3 0  9991
2 69793  20.5984 316.8243 0022835  12.8189 347.2835 15.64886251  2077
ISS OBJECT YJ           
1 69794U 98067YJ  26197.27519262  .00017942  00000+0  32058-3 0  9997
2 69794  51.6316 156.0558 0007782 315.4379  44.5983 15.50069444  2165
ISS OBJECT YK           
1 69795U 98067YK  26197.27094915  .00032264  00000+0  55507-3 0  9999
2 69795  51.6315 156.0282 0006703 324.0452  36.0086 15.50781978  2162
ISS OBJECT YL           
1 69796U 98067YL  26197.59432701  .00026803  00000+0  46630-3 0  9993
2 69796  51.6314 154.4373 0008769 317.4896  42.5414 15.50550046  2209
ISS OBJECT YM           
1 69797U 98067YM  26197.27179167  .00024510  00000+0  42677-3 0  9993
2 69797  51.6313 156.0339 0009582 308.1908  51.8217 15.50571715  2147
ISS OBJECT YN           
1 69798U 98067YN  26197.27262036  .00017059  00000+0  30216-3 0  9998
2 69798  51.6315 156.0389 0009219 319.3500  40.6800 15.50346409  2160
PROVES-ELECTRA          
1 69799U 98067YP  26197.27172083  .00023760  00000+0  41406-3 0  9990
2 69799  51.6313 156.0335 0009734 308.0926  51.9185 15.50565584  2156
QIANFAN-201             
1 69800U 26153A   26198.13808698  .00000199  00000+0  76474-4 0  9999
2 69800  88.9924 358.8233 0008289 176.0885 184.0375 14.26541753  1826
QIANFAN-202             
1 69801U 26153B   26198.15692473  .00000043  00000+0  13810-4 0  9997
2 69801  88.9924 358.8263 0006870 168.3527 191.7822 14.18843359  1821
QIANFAN-203             
1 69802U 26153C   26198.15181095  .00000056  00000+0  18621-4 0  9990
2 69802  88.9924 358.8255 0007501 177.4942 182.6288 14.22390827  1824
QIANFAN-204             
1 69803U 26153D   26198.15376015  .00000043  00000+0  13299-4 0  9991
2 69803  88.9925 358.8257 0007836 172.0367 188.0949 14.20114220  1824
QIANFAN-205             
1 69804U 26153E   26198.15315961  .00000109  00000+0  42556-4 0  9996
2 69804  88.9923 358.8255 0007707 176.0025 184.1230 14.22264632  1828
QIANFAN-206             
1 69805U 26153F   26198.14458119  .00000046  00000+0  13489-4 0  9992
2 69805  88.9924 358.8243 0008192 176.7322 183.3926 14.24034565  1828
QIANFAN-207             
1 69806U 26153G   26198.14304852  .00000141  00000+0  54879-4 0  9991
2 69806  88.9924 358.8241 0007628 176.7474 183.3769 14.24250733  1820
QIANFAN-208             
1 69807U 26153H   26198.14095882  .00000149  00000+0  56820-4 0  9998
2 69807  88.9923 358.8237 0008423 177.5121 182.6116 14.25462369  1826
QIANFAN-209             
1 69808U 26153J   26198.14455941  .00000094  00000+0  35170-4 0  9999
2 69808  88.9924 358.8242 0007552 173.9211 186.2074 14.23086331  1828
